COSMOS 2361 [-]         
1 25590U 98076A   17065.86963271  .00000039  00000-0  25158-4 0  9999
2 25590  82.9368 191.5929 0032050 166.7786 346.0584 13.72929044911637
COSMOS 2378 [-]         
1 26818U 01023A   17065.64440579  .00000011  00000-0 -52881-5 0  9991
2 26818  82.9278 213.3359 0034197 122.7267 237.7201 13.73912005789456
COSMOS 2389 [-]         
1 27436U 02026A   17066.42364806  .00000016  00000-0  15214-5 0  9990
2 27436  82.9536 156.4899 0046095 356.6018  52.0601 13.74910805741488
COSMOS 2398 [-]         
1 27818U 03023A   17065.58516389  .00000041  00000-0  28936-4 0  9995
2 27818  82.9482 112.4768 0031831  10.5111 349.6694 13.72140160688867
COSMOS 2407 [+]         
1 28380U 04028A   17065.61181483  .00000009  00000-0 -59217-5 0  9995
2 28380  82.9581  64.2523 0039937  12.4494 347.7646 13.76036871633891
COSMOS 2414 [+]         
1 28521U 05002A   17066.46330844  .00000014  00000-0 -71187-6 0  9993
2 28521  82.9472  85.7157 0038728 269.7333  89.9395 13.87582913614175
COSMOS 2429 [-]         
1 32052U 07038A   17066.48348879  .00000025  00000-0  10658-4 0  9992
2 32052  82.9837 182.6865 0037777 338.3811  21.5748 13.74884490476063
COSMOS 2454 [-]         
1 35635U 09039A   17066.37174109  .00000031  00000-0  12299-4 0  9996
2 35635  82.9537  75.7233 0017749 231.5462 128.4108 13.89608580386915
COSMOS 2463 [+]         
1 36519U 10017A   17065.94759459  .00000051  00000-0  39695-4 0  9996
2 36519  82.9602 219.2152 0036480 170.1881 189.9993 13.71409428343458
